{
  "norad_id": 66985,
  "name": "STARLINK-36103",
  "history": [
    {
      "epoch": "2026-03-28T20:17:49.769952",
      "apogee_km": 484.35628036868366,
      "perigee_km": 481.5981124617256,
      "latitude_deg": 31.372161228357538,
      "longitude_deg": -120.31136671989225,
      "semi_major_axis_km": 6861.114196415205,
      "eccentricity": 0.000201,
      "inclination_deg": 43.0056,
      "raan_deg": 275.5607,
      "arg_perigee_deg": 282.7816,
      "mean_anomaly_deg": 77.2811,
      "mean_motion_rev_day": 15.27604012
    }
  ]
}